[{"OBJECT_NAME":"STARLINK-4292","OBJECT_ID":"2022-083AV","EPOCH":"2026-03-09T13:21:56.750976","MEAN_MOTION":15.08846761,"ECCENTRICITY":0.0001279,"INCLINATION":53.2166,"RA_OF_ASC_NODE":174.7173,"ARG_OF_PERICENTER":84.8248,"MEAN_ANOMALY":275.289,"EPHEMERIS_TYPE":0,"CLASSIFICATION_TYPE":"U","NORAD_CAT_ID":53175,"ELEMENT_SET_NO":999,"REV_AT_EPOCH":20119,"BSTAR":-0.00013269,"MEAN_MOTION_DOT":-2.399e-5,"MEAN_MOTION_DDOT":0},{"OBJECT_NAME":"CZ-6A DEB","OBJECT_ID":"2022-151AEC","EPOCH":"2026-03-09T16:07:43.414464","MEAN_MOTION":15.01082395,"ECCENTRICITY":0.0040922,"INCLINATION":98.632,"RA_OF_ASC_NODE":144.2747,"ARG_OF_PERICENTER":190.1613,"MEAN_ANOMALY":169.8786,"EPHEMERIS_TYPE":0,"CLASSIFICATION_TYPE":"U","NORAD_CAT_ID":56604,"ELEMENT_SET_NO":999,"REV_AT_EPOCH":16341,"BSTAR":0.005850488,"MEAN_MOTION_DOT":0.00076879,"MEAN_MOTION_DDOT":0}]
